1 53742U 22107AU  22283.58334491 -.01199378  00000-0 -31481-1 0  9995
2 53742  53.2175  99.4443 0001213 119.6292 271.6661 15.41025153  1306